{
    "links": {
        "self": "http://www.neowsapp.com/rest/v1/neo/3841168?api_key=iIulBulltgU6a56xZRHN4H3l9WmuAYTsLGpBGhQ2"
    },
    "id": "3841168",
    "neo_reference_id": "3841168",
    "name": "(2019 GE19)",
    "designation": "2019 GE19",
    "nasa_jpl_url": "http://ssd.jpl.nasa.gov/sbdb.cgi?sstr=3841168",
    "absolute_magnitude_h": 25.3,
    "estimated_diameter": {
        "kilometers": {
            "estimated_diameter_min": 0.0231502122,
            "estimated_diameter_max": 0.0517654482
        },
        "meters": {
            "estimated_diameter_min": 23.150212221,
            "estimated_diameter_max": 51.7654482198
        },
        "miles": {
            "estimated_diameter_min": 0.0143848705,
            "estimated_diameter_max": 0.0321655483
        },
        "feet": {
            "estimated_diameter_min": 75.9521422633,
            "estimated_diameter_max": 169.8341531374
        }
    },
    "is_potentially_hazardous_asteroid": false,
    "close_approach_data": [
        {
            "close_approach_date": "2019-04-04",
            "close_approach_date_full": "2019-Apr-04 12:36",
            "epoch_date_close_approach": 1554381360000,
            "relative_velocity": {
                "kilometers_per_second": "4.5996625304",
                "kilometers_per_hour": "16558.7851093019",
                "miles_per_hour": "10288.985114166"
            },
            "miss_distance": {
                "astronomical": "0.1629088747",
                "lunar": "63.3715522583",
                "kilometers": "24370820.659216889",
                "miles": "15143325.7522915082"
            },
            "orbiting_body": "Earth"
        }
    ],
    "orbital_data": {
        "orbit_id": "1",
        "orbit_determination_date": "2019-04-14 14:42:08",
        "first_observation_date": "2019-04-05",
        "last_observation_date": "2019-04-09",
        "data_arc_in_days": 4,
        "observations_used": 11,
        "orbit_uncertainty": "9",
        "minimum_orbit_intersection": ".162636",
        "jupiter_tisserand_invariant": "3.316",
        "epoch_osculation": "2458580.5",
        "eccentricity": ".519406966578728",
        "semi_major_axis": "2.416384788054443",
        "inclination": "3.260719658280081",
        "ascending_node_longitude": "210.2607797846457",
        "orbital_period": "1371.979323717267",
        "perihelion_distance": "1.161297695204102",
        "perihelion_argument": "340.8300589352515",
        "aphelion_distance": "3.671471880904784",
        "perihelion_time": "2458574.475871905963",
        "mean_anomaly": "1.580698831508218",
        "mean_motion": ".2623946248873554",
        "equinox": "J2000",
        "orbit_class": {
            "orbit_class_type": "AMO",
            "orbit_class_description": "Near-Earth asteroid orbits similar to that of 1221 Amor",
            "orbit_class_range": "1.017 AU < q (perihelion) < 1.3 AU"
        }
    },
    "is_sentry_object": false
}